STARLINK-35717          
1 66839U 25280U   25364.83336806 -.02006626  00000+0 -53990-1 0  9996
2 66839  69.9996 148.8717 0003374 280.3303   6.0267 15.41240982  5804
STARLINK-35837          
1 66840U 25280V   25364.83336806 -.02002866  00000+0 -61433-1 0  9991
2 66840  69.9999 148.9155 0003193 280.9346 327.3579 15.37266734  5801
STARLINK-35715          
1 66841U 25280W   25364.83336806 -.02008519  00000+0 -61613-1 0  9993
2 66841  69.9996 148.9130 0003240 279.5559 330.6965 15.37273310  5809
STARLINK-35769          
1 66842U 25280X   25364.77731646 -.00144503  00000+0 -31651-2 0  9990
2 66842  69.9991 148.9932 0007694 327.6757  32.3953 15.44433869  5737
STARLINK-35997          
1 66843U 25280Y   25364.83336806 -.02009470  00000+0 -53038-1 0  9994
2 66843  69.9998 148.8522 0003235 276.1609  26.7318 15.41820738  5802
STARLINK-36073          
1 66844U 25280Z   25364.83336806 -.02003475  00000+0 -56436-1 0  9999
2 66844  69.9993 148.8750 0003264 277.2076   5.6264 15.39858241  5806
STARLINK-36068          
1 66845U 25280AA  25364.83336806 -.02047080  00000+0 -51501-1 0  9998
2 66845  69.9997 148.8325 0003303 276.1140  44.1114 15.43307632  5803
STARLINK-36055          
1 66846U 25280AB  25364.83336806 -.02005703  00000+0 -63278-1 0  9999
2 66846  69.9996 148.9154 0003305 281.4336 325.6673 15.36403337  5800
STARLINK-36061          
1 66847U 25280AC  25364.83336806 -.02012838  00000+0 -62019-1 0  9999
2 66847  69.9992 148.9026 0003231 280.0229 338.2470 15.37145977  5752
STARLINK-36091          
1 66848U 25281A   25364.35756693  .00105643  00000+0  17790-2 0  9998
2 66848  43.0029  16.6331 0002963 261.7172  98.3353 15.50629761  5567
STARLINK-36102          
1 66849U 25281B   25364.42165018  .00111967  00000+0  18867-2 0  9994
2 66849  42.9976  16.2506 0000428 229.5769 130.5054 15.50585664  5576
STARLINK-36105          
1 66850U 25281C   25364.42130169  .00103341  00000+0  17422-2 0  9998
2 66850  43.0021  16.2509 0002353 278.3078  81.7516 15.50610309  5573
