CCSDS_OMM_VERS = 2.0
CREATION_DATE  = 
ORIGINATOR     = 

OBJECT_NAME    = STARLINK-35717
OBJECT_ID      = 2025-280U
CENTER_NAME    = EARTH
REF_FRAME      = TEME
TIME_SYSTEM    = UTC
MEAN_ELEMENT_THEORY = SGP/SGP4

EPOCH          = 2025-12-30T20:00:03.000384
MEAN_MOTION    = 15.41240982
ECCENTRICITY   = .0003374
INCLINATION    = 69.9996
RA_OF_ASC_NODE = 148.8717
ARG_OF_PERICENTER = 280.3303
MEAN_ANOMALY   = 6.0267

EPHEMERIS_TYPE = 0
CLASSIFICATION_TYPE = U
NORAD_CAT_ID   = 66839
ELEMENT_SET_NO = 999
REV_AT_EPOCH   = 580
BSTAR          = -.5399E-1
MEAN_MOTION_DOT = -.2006626E-1
MEAN_MOTION_DDOT = 0

CCSDS_OMM_VERS = 2.0
CREATION_DATE  = 
ORIGINATOR     = 

OBJECT_NAME    = STARLINK-35837
OBJECT_ID      = 2025-280V
CENTER_NAME    = EARTH
REF_FRAME      = TEME
TIME_SYSTEM    = UTC
MEAN_ELEMENT_THEORY = SGP/SGP4

EPOCH          = 2025-12-30T20:00:03.000384
MEAN_MOTION    = 15.37266734
ECCENTRICITY   = .0003193
INCLINATION    = 69.9999
RA_OF_ASC_NODE = 148.9155
ARG_OF_PERICENTER = 280.9346
MEAN_ANOMALY   = 327.3579

EPHEMERIS_TYPE = 0
CLASSIFICATION_TYPE = U
NORAD_CAT_ID   = 66840
ELEMENT_SET_NO = 999
REV_AT_EPOCH   = 580
BSTAR          = -.61433E-1
MEAN_MOTION_DOT = -.2002866E-1
MEAN_MOTION_DDOT = 0

CCSDS_OMM_VERS = 2.0
CREATION_DATE  = 
ORIGINATOR     = 

OBJECT_NAME    = STARLINK-35715
OBJECT_ID      = 2025-280W
CENTER_NAME    = EARTH
REF_FRAME      = TEME
TIME_SYSTEM    = UTC
MEAN_ELEMENT_THEORY = SGP/SGP4

EPOCH          = 2025-12-30T20:00:03.000384
MEAN_MOTION    = 15.37273310
ECCENTRICITY   = .000324
INCLINATION    = 69.9996
RA_OF_ASC_NODE = 148.9130
ARG_OF_PERICENTER = 279.5559
MEAN_ANOMALY   = 330.6965

EPHEMERIS_TYPE = 0
CLASSIFICATION_TYPE = U
NORAD_CAT_ID   = 66841
ELEMENT_SET_NO = 999
REV_AT_EPOCH   = 580
BSTAR          = -.61613E-1
MEAN_MOTION_DOT = -.2008519E-1
MEAN_MOTION_DDOT = 0

CCSDS_OMM_VERS = 2.0
CREATION_DATE  = 
ORIGINATOR     = 

OBJECT_NAME    = STARLINK-35769
OBJECT_ID      = 2025-280X
CENTER_NAME    = EARTH
REF_FRAME      = TEME
TIME_SYSTEM    = UTC
MEAN_ELEMENT_THEORY = SGP/SGP4

EPOCH          = 2025-12-30T18:39:20.142144
MEAN_MOTION    = 15.44433869
ECCENTRICITY   = .0007694
INCLINATION    = 69.9991
RA_OF_ASC_NODE = 148.9932
ARG_OF_PERICENTER = 327.6757
MEAN_ANOMALY   = 32.3953

EPHEMERIS_TYPE = 0
CLASSIFICATION_TYPE = U
NORAD_CAT_ID   = 66842
ELEMENT_SET_NO = 999
REV_AT_EPOCH   = 573
BSTAR          = -.31651E-2
MEAN_MOTION_DOT = -.144503E-2
MEAN_MOTION_DDOT = 0

CCSDS_OMM_VERS = 2.0
CREATION_DATE  = 
ORIGINATOR     = 

OBJECT_NAME    = STARLINK-35997
OBJECT_ID      = 2025-280Y
CENTER_NAME    = EARTH
REF_FRAME      = TEME
TIME_SYSTEM    = UTC
MEAN_ELEMENT_THEORY = SGP/SGP4

EPOCH          = 2025-12-30T20:00:03.000384
MEAN_MOTION    = 15.41820738
ECCENTRICITY   = .0003235
INCLINATION    = 69.9998
RA_OF_ASC_NODE = 148.8522
ARG_OF_PERICENTER = 276.1609
MEAN_ANOMALY   = 26.7318

EPHEMERIS_TYPE = 0
CLASSIFICATION_TYPE = U
NORAD_CAT_ID   = 66843
ELEMENT_SET_NO = 999
REV_AT_EPOCH   = 580
BSTAR          = -.53038E-1
MEAN_MOTION_DOT = -.200947E-1
MEAN_MOTION_DDOT = 0

CCSDS_OMM_VERS = 2.0
CREATION_DATE  = 
ORIGINATOR     = 

OBJECT_NAME    = STARLINK-36073
OBJECT_ID      = 2025-280Z
CENTER_NAME    = EARTH
REF_FRAME      = TEME
TIME_SYSTEM    = UTC
MEAN_ELEMENT_THEORY = SGP/SGP4

EPOCH          = 2025-12-30T20:00:03.000384
MEAN_MOTION    = 15.39858241
ECCENTRICITY   = .0003264
INCLINATION    = 69.9993
RA_OF_ASC_NODE = 148.8750
ARG_OF_PERICENTER = 277.2076
MEAN_ANOMALY   = 5.6264

EPHEMERIS_TYPE = 0
CLASSIFICATION_TYPE = U
NORAD_CAT_ID   = 66844
ELEMENT_SET_NO = 999
REV_AT_EPOCH   = 580
BSTAR          = -.56436E-1
MEAN_MOTION_DOT = -.2003475E-1
MEAN_MOTION_DDOT = 0

CCSDS_OMM_VERS = 2.0
CREATION_DATE  = 
ORIGINATOR     = 

OBJECT_NAME    = STARLINK-36068
OBJECT_ID      = 2025-280AA
CENTER_NAME    = EARTH
REF_FRAME      = TEME
TIME_SYSTEM    = UTC
MEAN_ELEMENT_THEORY = SGP/SGP4

EPOCH          = 2025-12-30T20:00:03.000384
MEAN_MOTION    = 15.43307632
ECCENTRICITY   = .0003303
INCLINATION    = 69.9997
RA_OF_ASC_NODE = 148.8325
ARG_OF_PERICENTER = 276.1140
MEAN_ANOMALY   = 44.1114

EPHEMERIS_TYPE = 0
CLASSIFICATION_TYPE = U
NORAD_CAT_ID   = 66845
ELEMENT_SET_NO = 999
REV_AT_EPOCH   = 580
BSTAR          = -.51501E-1
MEAN_MOTION_DOT = -.204708E-1
MEAN_MOTION_DDOT = 0

CCSDS_OMM_VERS = 2.0
CREATION_DATE  = 
ORIGINATOR     = 

OBJECT_NAME    = STARLINK-36055
OBJECT_ID      = 2025-280AB
CENTER_NAME    = EARTH
REF_FRAME      = TEME
TIME_SYSTEM    = UTC
MEAN_ELEMENT_THEORY = SGP/SGP4

EPOCH          = 2025-12-30T20:00:03.000384
MEAN_MOTION    = 15.36403337
ECCENTRICITY   = .0003305
INCLINATION    = 69.9996
RA_OF_ASC_NODE = 148.9154
ARG_OF_PERICENTER = 281.4336
MEAN_ANOMALY   = 325.6673

EPHEMERIS_TYPE = 0
CLASSIFICATION_TYPE = U
NORAD_CAT_ID   = 66846
ELEMENT_SET_NO = 999
REV_AT_EPOCH   = 580
BSTAR          = -.63278E-1
MEAN_MOTION_DOT = -.2005703E-1
MEAN_MOTION_DDOT = 0

CCSDS_OMM_VERS = 2.0
CREATION_DATE  = 
ORIGINATOR     = 

OBJECT_NAME    = STARLINK-36061
OBJECT_ID      = 2025-280AC
CENTER_NAME    = EARTH
REF_FRAME      = TEME
TIME_SYSTEM    = UTC
MEAN_ELEMENT_THEORY = SGP/SGP4

EPOCH          = 2025-12-30T20:00:03.000384
MEAN_MOTION    = 15.37145977
ECCENTRICITY   = .0003231
INCLINATION    = 69.9992
RA_OF_ASC_NODE = 148.9026
ARG_OF_PERICENTER = 280.0229
MEAN_ANOMALY   = 338.2470

EPHEMERIS_TYPE = 0
CLASSIFICATION_TYPE = U
NORAD_CAT_ID   = 66847
ELEMENT_SET_NO = 999
REV_AT_EPOCH   = 575
BSTAR          = -.62019E-1
MEAN_MOTION_DOT = -.2012838E-1
MEAN_MOTION_DDOT = 0

CCSDS_OMM_VERS = 2.0
CREATION_DATE  = 
ORIGINATOR     = 

OBJECT_NAME    = STARLINK-36091
OBJECT_ID      = 2025-281A
CENTER_NAME    = EARTH
REF_FRAME      = TEME
TIME_SYSTEM    = UTC
MEAN_ELEMENT_THEORY = SGP/SGP4

EPOCH          = 2025-12-30T08:34:53.782752
MEAN_MOTION    = 15.50629761
ECCENTRICITY   = .0002963
INCLINATION    = 43.0029
RA_OF_ASC_NODE = 16.6331
ARG_OF_PERICENTER = 261.7172
MEAN_ANOMALY   = 98.3353

EPHEMERIS_TYPE = 0
CLASSIFICATION_TYPE = U
NORAD_CAT_ID   = 66848
ELEMENT_SET_NO = 999
REV_AT_EPOCH   = 556
BSTAR          = .17790059E-2
MEAN_MOTION_DOT = .105643E-2
MEAN_MOTION_DDOT = 0

CCSDS_OMM_VERS = 2.0
CREATION_DATE  = 
ORIGINATOR     = 

OBJECT_NAME    = STARLINK-36102
OBJECT_ID      = 2025-281B
CENTER_NAME    = EARTH
REF_FRAME      = TEME
TIME_SYSTEM    = UTC
MEAN_ELEMENT_THEORY = SGP/SGP4

EPOCH          = 2025-12-30T10:07:10.575552
MEAN_MOTION    = 15.50585664
ECCENTRICITY   = .00004288
INCLINATION    = 42.9976
RA_OF_ASC_NODE = 16.2506
ARG_OF_PERICENTER = 229.5769
MEAN_ANOMALY   = 130.5054

EPHEMERIS_TYPE = 0
CLASSIFICATION_TYPE = U
NORAD_CAT_ID   = 66849
ELEMENT_SET_NO = 999
REV_AT_EPOCH   = 557
BSTAR          = .18867376E-2
MEAN_MOTION_DOT = .111967E-2
MEAN_MOTION_DDOT = 0

CCSDS_OMM_VERS = 2.0
CREATION_DATE  = 
ORIGINATOR     = 

OBJECT_NAME    = STARLINK-36105
OBJECT_ID      = 2025-281C
CENTER_NAME    = EARTH
REF_FRAME      = TEME
TIME_SYSTEM    = UTC
MEAN_ELEMENT_THEORY = SGP/SGP4

EPOCH          = 2025-12-30T10:06:40.466016
MEAN_MOTION    = 15.50610309
ECCENTRICITY   = .0002353
INCLINATION    = 43.0021
RA_OF_ASC_NODE = 16.2509
ARG_OF_PERICENTER = 278.3078
MEAN_ANOMALY   = 81.7516

EPHEMERIS_TYPE = 0
CLASSIFICATION_TYPE = U
NORAD_CAT_ID   = 66850
ELEMENT_SET_NO = 999
REV_AT_EPOCH   = 557
BSTAR          = .17421617E-2
MEAN_MOTION_DOT = .103341E-2
MEAN_MOTION_DDOT = 0

